SL-16 R/B               
1 28353U 04021B   16013.69297035 -.00000149  00000-0 -53197-4 0  9995
2 28353  71.0009  90.0011 0007484 268.6724  91.3541 14.14165385598574
CZ-2C R/B               
1 28480U 04046B   16014.23426543  .00000079  00000-0  46030-4 0  9990
2 28480  98.1654 138.5349 0141294 319.6672  97.7691 14.25561502580154
ARIANE 5 R/B            
1 28499U 04049H   16014.31576279  .00000278  00000-0  41743-4 0  9991
2 28499  98.1278  86.9846 0094116  93.1152 313.8945 14.79613010597110
CZ-2D R/B               
1 28738U 05024B   16013.52529532  .00002009  00000-0  12703-3 0  9990
2 28738  97.5626  52.7729 0012467   1.5433 358.5833 15.10108953577202
SUZAKU (ASTRO-EII)      
1 28773U 05025A   16013.52826783  .00003383  00000-0  17671-3 0  9993
2 28773  31.3838  69.0024 0005068 169.2148 190.8608 15.14095096578323
ALOS (DAICHI)           
1 28931U 06002A   16014.21443085  .00000432  00000-0  94774-4 0  9994
2 28931  97.9063  59.8754 0001877 116.3441 243.7954 14.62093676531478
H-2A R/B                
1 28932U 06002B   16014.34766209  .00001425  00000-0  14131-3 0  9996
2 28932  98.2298 270.2433 0090564 213.1816 283.1431 14.90580270540345
AKARI (ASTRO-F)         
1 28939U 06005A   16014.34967096  .00012810  00000-0  44453-3 0  9993
2 28939  98.2187 155.7292 0120154 183.1778 176.8708 15.23235538533811
RESURS-DK 1             
1 29228U 06021A   16014.51547494  .00000300  00000-0  30416-4 0  9994
2 29228  69.9381 339.8785 0002139  19.2142 340.9100 15.01730366530072
GENESIS 1               
1 29252U 06029A   16013.63694954  .00002816  00000-0  15565-3 0  9996
2 29252  64.5051 184.1970 0043614 243.4759 167.4341 15.15402735522913
CZ-4B R/B               
1 29507U 06046C   16014.09226857  .00001432  00000-0  12028-3 0  9996
2 29507  97.7853  15.4213 0035514 210.0675 149.8510 14.99480321503084
CZ-2C R/B               
1 31114U 07010B   16014.39122345  .00000068  00000-0  51658-4 0  9992
2 31114  98.4148 297.1529 0058690 284.4515  75.0154 14.19184138453787
COSMO-SKYMED 1          
1 31598U 07023A   16014.47914499  .00000514  00000-0  71061-4 0  9996
2 31598  97.8782 200.2973 0001341  85.3889 274.7499 14.82159360465468
GENESIS 2               
1 31789U 07028A   16013.55041147  .00001948  00000-0  11244-3 0  9990
2 31789  64.5030 220.6025 0050978 286.8737  72.6798 15.14668937470005
COSMOS 2428             
1 31792U 07029A   16014.50945698  .00000137  00000-0  10000-3 0  9993
2 31792  70.9581  62.5382 0010348 332.3720 172.6172 14.12449025440697
SL-16 R/B               
1 31793U 07029B   16014.48335789  .00000307  00000-0  18530-3 0  9990
2 31793  70.9753  40.7780 0002419 257.9421 205.0551 14.14349473441230
KORONAS-FOTON           
1 33504U 09003A   16014.51441513  .00001713  00000-0  92360-4 0  9999
2 33504  82.4417  29.0815 0021695 103.9348 256.4298 15.13913741382823
TIANGONG 1              
1 37820U 11053A   16014.58288880  .00014409  00000-0  19038-3 0  9991
2 37820  42.7640  88.7818 0008762  61.2440  77.3607 15.58129456246429
CUSAT 2 & FALCON 9 R/B  
1 39271U 13055G   16013.50211103  .00011104  00000-0  30835-3 0  9999
2 39271  80.9713 184.3339 0672978 292.8717  60.2778 14.27294942118057
